CCSDS_OMM_VERS = 2.0
CREATION_DATE  = 
ORIGINATOR     = 

OBJECT_NAME    = SL-16 R/B
OBJECT_ID      = 1998-043G
CENTER_NAME    = EARTH
REF_FRAME      = TEME
TIME_SYSTEM    = UTC
MEAN_ELEMENT_THEORY = SGP/SGP4

EPOCH          = 2025-12-31T11:05:29.707296
MEAN_MOTION    = 14.26030729
ECCENTRICITY   = .000929
INCLINATION    = 98.8149
RA_OF_ASC_NODE = 313.3874
ARG_OF_PERICENTER = 207.1118
MEAN_ANOMALY   = 152.9577

EPHEMERIS_TYPE = 0
CLASSIFICATION_TYPE = U
NORAD_CAT_ID   = 25400
ELEMENT_SET_NO = 999
REV_AT_EPOCH   = 42926
BSTAR          = .83673E-4
MEAN_MOTION_DOT = .155E-5
MEAN_MOTION_DDOT = 0

CCSDS_OMM_VERS = 2.0
CREATION_DATE  = 
ORIGINATOR     = 

OBJECT_NAME    = SL-16 R/B
OBJECT_ID      = 1998-045B
CENTER_NAME    = EARTH
REF_FRAME      = TEME
TIME_SYSTEM    = UTC
MEAN_ELEMENT_THEORY = SGP/SGP4

EPOCH          = 2025-12-31T08:11:36.737088
MEAN_MOTION    = 14.16181469
ECCENTRICITY   = .0005754
INCLINATION    = 71.0126
RA_OF_ASC_NODE = 325.3071
ARG_OF_PERICENTER = 145.4357
MEAN_ANOMALY   = 214.7141

EPHEMERIS_TYPE = 0
CLASSIFICATION_TYPE = U
NORAD_CAT_ID   = 25407
ELEMENT_SET_NO = 999
REV_AT_EPOCH   = 41742
BSTAR          = .683E-4
MEAN_MOTION_DOT = .88E-6
MEAN_MOTION_DDOT = 0

CCSDS_OMM_VERS = 2.0
CREATION_DATE  = 
ORIGINATOR     = 

OBJECT_NAME    = ISS (ZARYA)
OBJECT_ID      = 1998-067A
CENTER_NAME    = EARTH
REF_FRAME      = TEME
TIME_SYSTEM    = UTC
MEAN_ELEMENT_THEORY = SGP/SGP4

EPOCH          = 2025-12-31T10:27:57.254112
MEAN_MOTION    = 15.48972750
ECCENTRICITY   = .0007506
INCLINATION    = 51.6331
RA_OF_ASC_NODE = 49.8878
ARG_OF_PERICENTER = 323.8065
MEAN_ANOMALY   = 36.2414

EPHEMERIS_TYPE = 0
CLASSIFICATION_TYPE = U
NORAD_CAT_ID   = 25544
ELEMENT_SET_NO = 999
REV_AT_EPOCH   = 54575
BSTAR          = .28262E-3
MEAN_MOTION_DOT = .15147E-3
MEAN_MOTION_DDOT = 0

CCSDS_OMM_VERS = 2.0
CREATION_DATE  = 
ORIGINATOR     = 

OBJECT_NAME    = CZ-4B R/B
OBJECT_ID      = 1999-025C
CENTER_NAME    = EARTH
REF_FRAME      = TEME
TIME_SYSTEM    = UTC
MEAN_ELEMENT_THEORY = SGP/SGP4

EPOCH          = 2025-12-31T08:44:45.971808
MEAN_MOTION    = 14.18248686
ECCENTRICITY   = .003715
INCLINATION    = 98.6742
RA_OF_ASC_NODE = 46.2254
ARG_OF_PERICENTER = 179.9085
MEAN_ANOMALY   = 191.2233

EPHEMERIS_TYPE = 0
CLASSIFICATION_TYPE = U
NORAD_CAT_ID   = 25732
ELEMENT_SET_NO = 999
REV_AT_EPOCH   = 37848
BSTAR          = .96962E-4
MEAN_MOTION_DOT = .158E-5
MEAN_MOTION_DDOT = 0

CCSDS_OMM_VERS = 2.0
CREATION_DATE  = 
ORIGINATOR     = 

OBJECT_NAME    = OKEAN-O
OBJECT_ID      = 1999-039A
CENTER_NAME    = EARTH
REF_FRAME      = TEME
TIME_SYSTEM    = UTC
MEAN_ELEMENT_THEORY = SGP/SGP4

EPOCH          = 2025-12-31T12:21:29.530368
MEAN_MOTION    = 14.80198768
ECCENTRICITY   = .0001308
INCLINATION    = 97.9577
RA_OF_ASC_NODE = 61.0520
ARG_OF_PERICENTER = 114.5182
MEAN_ANOMALY   = 245.6167

EPHEMERIS_TYPE = 0
CLASSIFICATION_TYPE = U
NORAD_CAT_ID   = 25860
ELEMENT_SET_NO = 999
REV_AT_EPOCH   = 42430
BSTAR          = .19625E-3
MEAN_MOTION_DOT = .1439E-4
MEAN_MOTION_DDOT = 0

CCSDS_OMM_VERS = 2.0
CREATION_DATE  = 
ORIGINATOR     = 

OBJECT_NAME    = SL-16 R/B
OBJECT_ID      = 1999-039B
CENTER_NAME    = EARTH
REF_FRAME      = TEME
TIME_SYSTEM    = UTC
MEAN_ELEMENT_THEORY = SGP/SGP4

EPOCH          = 2025-12-31T10:11:14.486208
MEAN_MOTION    = 14.81617720
ECCENTRICITY   = .0015998
INCLINATION    = 98.0100
RA_OF_ASC_NODE = 59.5745
ARG_OF_PERICENTER = 116.8586
MEAN_ANOMALY   = 243.4264

EPHEMERIS_TYPE = 0
CLASSIFICATION_TYPE = U
NORAD_CAT_ID   = 25861
ELEMENT_SET_NO = 999
REV_AT_EPOCH   = 42675
BSTAR          = .15639E-3
MEAN_MOTION_DOT = .1178E-4
MEAN_MOTION_DDOT = 0

CCSDS_OMM_VERS = 2.0
CREATION_DATE  = 
ORIGINATOR     = 

OBJECT_NAME    = DELTA 2 R/B
OBJECT_ID      = 1999-041E
CENTER_NAME    = EARTH
REF_FRAME      = TEME
TIME_SYSTEM    = UTC
MEAN_ELEMENT_THEORY = SGP/SGP4

EPOCH          = 2025-12-31T01:15:59.448960
MEAN_MOTION    = 14.11463778
ECCENTRICITY   = .05042751
INCLINATION    = 51.7593
RA_OF_ASC_NODE = 215.3397
ARG_OF_PERICENTER = 145.7402
MEAN_ANOMALY   = 217.7169

EPHEMERIS_TYPE = 0
CLASSIFICATION_TYPE = U
NORAD_CAT_ID   = 25876
ELEMENT_SET_NO = 999
REV_AT_EPOCH   = 35333
BSTAR          = .55594763E-3
MEAN_MOTION_DOT = .3222E-4
MEAN_MOTION_DDOT = 0

CCSDS_OMM_VERS = 2.0
CREATION_DATE  = 
ORIGINATOR     = 

OBJECT_NAME    = HELIOS 1B
OBJECT_ID      = 1999-064A
CENTER_NAME    = EARTH
REF_FRAME      = TEME
TIME_SYSTEM    = UTC
MEAN_ELEMENT_THEORY = SGP/SGP4

EPOCH          = 2025-12-31T07:18:17.098848
MEAN_MOTION    = 14.87367860
ECCENTRICITY   = .0000561
INCLINATION    = 98.1753
RA_OF_ASC_NODE = 260.5208
ARG_OF_PERICENTER = 33.3359
MEAN_ANOMALY   = 326.7892

EPHEMERIS_TYPE = 0
CLASSIFICATION_TYPE = U
NORAD_CAT_ID   = 25977
ELEMENT_SET_NO = 999
REV_AT_EPOCH   = 67509
BSTAR          = .38329E-3
MEAN_MOTION_DOT = .3406E-4
MEAN_MOTION_DDOT = 0

CCSDS_OMM_VERS = 2.0
CREATION_DATE  = 
ORIGINATOR     = 

OBJECT_NAME    = TERRA
OBJECT_ID      = 1999-068A
CENTER_NAME    = EARTH
REF_FRAME      = TEME
TIME_SYSTEM    = UTC
MEAN_ELEMENT_THEORY = SGP/SGP4

EPOCH          = 2025-12-31T10:39:53.083296
MEAN_MOTION    = 14.60926137
ECCENTRICITY   = .0003202
INCLINATION    = 97.9723
RA_OF_ASC_NODE = 56.4399
ARG_OF_PERICENTER = 56.6086
MEAN_ANOMALY   = 68.1989

EPHEMERIS_TYPE = 0
CLASSIFICATION_TYPE = U
NORAD_CAT_ID   = 25994
ELEMENT_SET_NO = 999
REV_AT_EPOCH   = 38511
BSTAR          = .19488E-3
MEAN_MOTION_DOT = .91E-5
MEAN_MOTION_DDOT = 0

CCSDS_OMM_VERS = 2.0
CREATION_DATE  = 
ORIGINATOR     = 

OBJECT_NAME    = SL-16 R/B
OBJECT_ID      = 2000-006B
CENTER_NAME    = EARTH
REF_FRAME      = TEME
TIME_SYSTEM    = UTC
MEAN_ELEMENT_THEORY = SGP/SGP4

EPOCH          = 2025-12-31T03:03:00.461088
MEAN_MOTION    = 14.15812639
ECCENTRICITY   = .00187076
INCLINATION    = 71.0013
RA_OF_ASC_NODE = 241.9971
ARG_OF_PERICENTER = 283.8550
MEAN_ANOMALY   = 76.0492

EPHEMERIS_TYPE = 0
CLASSIFICATION_TYPE = U
NORAD_CAT_ID   = 26070
ELEMENT_SET_NO = 999
REV_AT_EPOCH   = 33885
BSTAR          = .19550741E-3
MEAN_MOTION_DOT = .337E-5
MEAN_MOTION_DDOT = 0

CCSDS_OMM_VERS = 2.0
CREATION_DATE  = 
ORIGINATOR     = 

OBJECT_NAME    = TITAN 4B R/B
OBJECT_ID      = 2000-047B
CENTER_NAME    = EARTH
REF_FRAME      = TEME
TIME_SYSTEM    = UTC
MEAN_ELEMENT_THEORY = SGP/SGP4

EPOCH          = 2025-12-31T10:28:45.529248
MEAN_MOTION    = 15.08931393
ECCENTRICITY   = .0037689
INCLINATION    = 67.9889
RA_OF_ASC_NODE = 232.3403
ARG_OF_PERICENTER = 121.7749
MEAN_ANOMALY   = 238.7081

EPHEMERIS_TYPE = 0
CLASSIFICATION_TYPE = U
NORAD_CAT_ID   = 26474
ELEMENT_SET_NO = 999
REV_AT_EPOCH   = 38261
BSTAR          = .36341E-3
MEAN_MOTION_DOT = .5712E-4
MEAN_MOTION_DDOT = 0

CCSDS_OMM_VERS = 2.0
CREATION_DATE  = 
ORIGINATOR     = 

OBJECT_NAME    = ENVISAT
OBJECT_ID      = 2002-009A
CENTER_NAME    = EARTH
REF_FRAME      = TEME
TIME_SYSTEM    = UTC
MEAN_ELEMENT_THEORY = SGP/SGP4

EPOCH          = 2025-12-30T09:06:36.429120
MEAN_MOTION    = 14.39006569
ECCENTRICITY   = .00011154
INCLINATION    = 98.3625
RA_OF_ASC_NODE = 314.6753
ARG_OF_PERICENTER = 88.2338
MEAN_ANOMALY   = 83.3691

EPHEMERIS_TYPE = 0
CLASSIFICATION_TYPE = U
NORAD_CAT_ID   = 27386
ELEMENT_SET_NO = 999
REV_AT_EPOCH   = 24920
BSTAR          = .97009711E-4
MEAN_MOTION_DOT = .257E-5
MEAN_MOTION_DDOT = 0

