SL-16 R/B               
1 25400U 98043G   25365.46214939  .00000155  00000+0  83673-4 0  9995
2 25400  98.8149 313.3874 0009290 207.1118 152.9577 14.26030729429264
SL-16 R/B               
1 25407U 98045B   25365.34139742  .00000088  00000+0  68300-4 0  9994
2 25407  71.0126 325.3071 0005754 145.4357 214.7141 14.16181469417427
ISS (ZARYA)             
1 25544U 98067A   25365.43607933  .00015147  00000+0  28262-3 0  9996
2 25544  51.6331  49.8878 0007506 323.8065  36.2414 15.48972750545754
CZ-4B R/B               
1 25732U 99025C   25365.36442097  .00000158  00000+0  96962-4 0  9999
2 25732  98.6742  46.2254 0037150 179.9085 191.2233 14.18248686378484
OKEAN-O                 
1 25860U 99039A   25365.51492512  .00001439  00000+0  19625-3 0  9993
2 25860  97.9577  61.0520 0001308 114.5182 245.6167 14.80198768424301
SL-16 R/B               
1 25861U 99039B   25365.42447322  .00001178  00000+0  15639-3 0  9994
2 25861  98.0100  59.5745 0015998 116.8586 243.4264 14.81617720426750
DELTA 2 R/B             
1 25876U 99041E   25365.05277140  .00003222  00000+0  55595-3 0  9998
2 25876  51.7593 215.3397 0504275 145.7402 217.7169 14.11463778353338
HELIOS 1B               
1 25977U 99064A   25365.30436457  .00003406  00000+0  38329-3 0  9991
2 25977  98.1753 260.5208 0000561  33.3359 326.7892 14.87367860675090
TERRA                   
1 25994U 99068A   25365.44436439  .00000910  00000+0  19488-3 0  9991
2 25994  97.9723  56.4399 0003202  56.6086  68.1989 14.60926137385110
SL-16 R/B               
1 26070U 00006B   25365.12708867  .00000337  00000+0  19551-3 0  9997
2 26070  71.0013 241.9971 0018707 283.8550  76.0492 14.15812639338851
TITAN 4B R/B            
1 26474U 00047B   25365.43663807  .00005712  00000+0  36341-3 0  9996
2 26474  67.9889 232.3403 0037689 121.7749 238.7081 15.08931393382614
ENVISAT                 
1 27386U 02009A   25364.37958830  .00000257  00000+0  97010-4 0  9994
2 27386  98.3625 314.6753 0001115  88.2338  83.3691 14.39006569249200
